GLOBALSTAR M024         
1 25883U 99043A   24166.91072300 -.00000074  00000+0 -31579-3 0  9992
2 25883  51.9989 129.3182 0001322 239.1994 132.0814 11.10156414 74071
GLOBALSTAR M027         
1 25884U 99043B   24166.83412922 -.00000102  00000+0 -14406-2 0  9993
2 25884  52.0170 197.0684 0021187 119.0523 241.2395 11.04368955100659
GLOBALSTAR M054         
1 25885U 99043C   24166.91094532 -.00000071  00000+0  13940-5 0  9995
2 25885  52.0165  25.8301 0004179 275.7888  97.2499 11.39203417 77199
GLOBALSTAR M053         
1 25886U 99043D   24166.85562360 -.00000057  00000+0  34209-3 0  9991
2 25886  52.0002 312.6792 0003945 169.2308   1.0582 11.27655773 78005
GLOBALSTAR M058         
1 25907U 99049A   24166.88889639 -.00000061  00000+0  31873-3 0  9994
2 25907  51.9965   9.9419 0001619 302.5927  57.4752 11.93182516497699
GLOBALSTAR M050         
1 25908U 99049B   24166.98465424 -.00000096  00000+0 -87707-4 0  9995
2 25908  52.0009  44.7948 0009676  23.4765 350.3735 12.07434924103830
GLOBALSTAR M033         
1 25909U 99049C   24166.65657669 -.00000089  00000+0  24361-4 0  9992
2 25909  51.9926 302.9173 0012023 228.2809 131.7010 12.20273415490871
GLOBALSTAR M055         
1 25910U 99049D   24166.61261682 -.00000071  00000+0  20019-3 0  9992
2 25910  52.0039 331.6754 0007872  90.0589 270.1165 12.29402793123076
